OBJECT_NAME,OBJECT_ID,EPOCH,MEAN_MOTION,ECCENTRICITY,INCLINATION,RA_OF_ASC_NODE,ARG_OF_PERICENTER,MEAN_ANOMALY,EPHEMERIS_TYPE,CLASSIFICATION_TYPE,NORAD_CAT_ID,ELEMENT_SET_NO,REV_AT_EPOCH,BSTAR,MEAN_MOTION_DOT,MEAN_MOTION_DDOT
NVS-01 (IRNSS-1J),2023-076A,2026-06-16T20:28:29.970624,1.00264842,.00031787,2.1664,244.3634,36.2189,61.1146,0,U,56759,999,1111,0,-.338E-5,0
NUSANTARA TIGA (SATRIA),2023-086A,2026-06-16T17:07:46.862976,1.00267892,.00031474,0.0359,351.6679,356.4296,319.8277,0,U,57045,999,975,0,-.238E-5,0
H2SAT (HEINRICH HERTZ),2023-093A,2026-06-16T22:04:38.847648,1.00269156,.0000837,0.0563,109.0315,87.5042,40.5173,0,U,57213,999,1091,0,-.1E-7,0
SYRACUSE 4B,2023-093B,2026-06-16T22:04:38.847648,1.00269107,.00001901,0.0213,20.6012,239.2745,330.0434,0,U,57214,999,696,0,0,0
JUPITER 3 (ECHOSTAR 24),2023-108A,2026-06-16T12:41:18.673440,1.00238161,.00005972,0.0216,352.9027,251.5427,115.5484,0,U,57479,999,1064,0,0,0
GALAXY 37 (G-37),2023-112A,2026-06-17T11:13:43.222368,1.00272176,.0001745,0.0171,327.7176,114.3436,225.0902,0,U,57493,999,1054,0,.43E-6,0
LUDI TANCE-4 01A,2023-120A,2026-06-17T01:12:21.722688,1.00268805,.00011846,15.1025,193.9657,41.7209,137.3966,0,U,57624,999,1054,0,-.176E-5,0
TJS-10,2023-169A,2026-06-17T19:12:58.321728,1.00274368,.0003814,2.5467,80.4827,110.1676,96.0447,0,U,58204,999,954,0,-.256E-5,0
ZHONGXING-6E,2023-172A,2026-06-17T01:57:34.006176,1.00271358,.00026755,0.0390,87.6497,353.3593,329.2534,0,U,58253,999,965,0,-.365E-5,0
YAOGAN-41,2023-197A,2026-06-16T18:44:00.497184,1.00270236,.00139959,3.1291,313.1427,193.9818,162.1255,0,U,58582,999,931,0,-.363E-5,0
OVZON-3,2024-003A,2026-06-16T22:54:10.315584,1.00271575,.00001944,0.0119,44.2472,271.6176,352.5813,0,U,58698,999,744,0,0,0
INSAT-3DS,2024-033A,2026-06-16T16:49:38.025984,1.00271371,.00010011,0.0433,112.2519,322.3943,164.8294,0,U,58990,999,4706,0,-.158E-5,0
MERAH PUTIH 2,2024-035A,2026-06-16T19:07:21.846432,1.00269851,.00008895,0.0146,301.4493,129.0760,234.3245,0,U,58995,999,858,0,-.36E-5,0
TJS-11,2024-037A,2026-06-17T15:37:03.379584,1.00275341,.00031529,4.1985,327.1010,105.4541,180.2110,0,U,59020,999,858,0,-.368E-5,0
HULIANWAN GAOGUI-01 (HG-01),2024-040A,2026-06-16T18:18:22.748256,1.00269231,.00027345,0.0668,331.9978,65.6074,175.5765,0,U,59069,999,732,0,.153E-5,0
EUTELSAT 36D,2024-059A,2026-06-16T22:11:04.163136,1.00269216,.00006563,0.0180,42.6450,138.6836,92.5035,0,U,59346,999,814,0,.153E-5,0
PAKSAT-MM1,2024-104A,2026-06-16T22:14:11.399712,1.00264883,.00024071,0.0393,88.7084,345.7977,202.4397,0,U,59915,999,752,0,.151E-5,0
ASTRA 1P (SES-24),2024-115A,2026-06-14T18:32:31.865856,1.00269642,.0000904,0.0593,357.4016,356.3080,206.6982,0,U,60086,999,717,0,.126E-5,0
GOES 19,2024-119A,2026-06-16T14:22:05.433600,1.00271370,.00003874,0.0076,86.7798,98.2994,220.1202,0,U,60133,999,695,0,-.25E-5,0
ZHONGXING-3A,2024-122A,2026-06-17T02:43:21.768096,1.00271628,.00010415,0.0405,103.9872,22.1831,281.6065,0,U,60179,999,730,0,-.317E-5,0
TURKSAT 6A,2024-127A,2026-06-16T22:14:11.399712,1.00269722,.00014628,0.0150,219.7978,273.1741,147.7575,0,U,60233,999,701,0,0,0
HULIANWAN GAOGUI-02 (HG-02),2024-135A,2026-06-17T12:26:38.820768,1.00267760,.00073892,0.0433,1.4733,5.1944,238.8993,0,U,60327,999,750,0,-.179E-5,0
ZHONGXING-4A,2024-151A,2026-06-16T20:25:15.282048,1.00273699,.0000076,1.3147,270.8440,72.5719,346.2235,0,U,60606,999,675,0,-.364E-5,0
HULIANWAN GAOGUI-03 (HG-03),2024-181A,2026-06-17T09:44:38.705856,1.00271733,.0001152,0.0466,2.9842,86.9142,244.7856,0,U,61503,999,682,0,-.246E-5,0
DSN-3 (KIRAMEKI-3),2024-198A,2026-06-16T18:49:59.922912,1.00271743,.00003682,0.0174,6.2916,86.2713,239.0431,0,U,61733,999,591,0,-.253E-5,0
KOREASAT 6A,2024-206A,2026-06-16T18:41:53.199744,1.00270733,.00007297,0.0178,45.7007,11.5226,244.3062,0,U,61910,999,583,0,-.364E-5,0
OPTUS-X (ADS-01),2024-212A,2026-06-17T05:17:38.729760,1.00270105,.00018206,0.0217,292.5762,201.2045,7.4871,0,U,62006,999,576,0,-.148E-5,0
GSAT-N2 (GSAT-20),2024-214A,2026-06-16T22:40:02.284032,1.00269758,.00018048,0.0422,114.2830,320.8930,237.9964,0,U,62028,999,589,0,-.22E-6,0
SXM-9,2024-234A,2026-06-17T05:35:08.700576,1.00269932,.00049854,0.0129,343.0057,330.6963,310.4099,0,U,62259,999,557,0,-.209E-5,0
TJS-12,2024-246A,2026-06-17T12:26:38.820768,1.00269455,.00020472,0.6691,299.2191,81.2525,218.5015,0,U,62374,999,556,0,-.236E-5,0
NUVIEW ALPHA,2024-252B,2026-06-17T09:44:38.705856,1.00271084,.00009638,0.0574,36.3107,20.5015,271.9335,0,U,62455,999,382,0,-.22E-5,0
