NVS-01 (IRNSS-1J)       
1 56759U 23076A   26167.85312466 -.00000338  00000+0  00000+0 0  9990
2 56759   2.1664 244.3634 0003178  36.2189  61.1146  1.00264842 11117
NUSANTARA TIGA (SATRIA) 
1 57045U 23086A   26167.71373684 -.00000238  00000+0  00000+0 0  9993
2 57045   0.0359 351.6679 0003147 356.4296 319.8277  1.00267892  9750
H2SAT (HEINRICH HERTZ)  
1 57213U 23093A   26167.91989407 -.00000001  00000+0  00000+0 0  9994
2 57213   0.0563 109.0315 0000837  87.5042  40.5173  1.00269156 10918
SYRACUSE 4B             
1 57214U 23093B   26167.91989407  .00000000  00000+0  00000+0 0  9993
2 57214   0.0213  20.6012 0000190 239.2745 330.0434  1.00269107  6964
JUPITER 3 (ECHOSTAR 24) 
1 57479U 23108A   26167.52868835  .00000000  00000+0  00000+0 0  9991
2 57479   0.0216 352.9027 0000597 251.5427 115.5484  1.00238161 10649
GALAXY 37 (G-37)        
1 57493U 23112A   26168.46786137  .00000043  00000+0  00000+0 0  9997
2 57493   0.0171 327.7176 0001745 114.3436 225.0902  1.00272176 10547
LUDI TANCE-4 01A        
1 57624U 23120A   26168.05025142 -.00000176  00000+0  00000+0 0  9997
2 57624  15.1025 193.9657 0001184  41.7209 137.3966  1.00268805 10542
TJS-10                  
1 58204U 23169A   26168.80067502 -.00000256  00000+0  00000+0 0  9993
2 58204   2.5467  80.4827 0003814 110.1676  96.0447  1.00274368  9541
ZHONGXING-6E            
1 58253U 23172A   26168.08164359 -.00000365  00000+0  00000+0 0  9990
2 58253   0.0390  87.6497 0002675 353.3593 329.2534  1.00271358  9654
YAOGAN-41               
1 58582U 23197A   26167.78056131 -.00000363  00000+0  00000+0 0  9994
2 58582   3.1291 313.1427 0013995 193.9818 162.1255  1.00270236  9319
OVZON-3                 
1 58698U 24003A   26167.95428606  .00000000  00000+0  00000+0 0  9995
2 58698   0.0119  44.2472 0000194 271.6176 352.5813  1.00271575  7446
INSAT-3DS               
1 58990U 24033A   26167.70113456 -.00000158  00000+0  00000+0 0  9995
2 58990   0.0433 112.2519 0001001 322.3943 164.8294  1.00271371 47065
MERAH PUTIH 2           
1 58995U 24035A   26167.79678063 -.00000360  00000+0  00000+0 0  9996
2 58995   0.0146 301.4493 0000889 129.0760 234.3245  1.00269851  8589
TJS-11                  
1 59020U 24037A   26168.65073356 -.00000368  00000+0  00000+0 0  9996
2 59020   4.1985 327.1010 0003152 105.4541 180.2110  1.00275341  8587
HULIANWAN GAOGUI-01 (H*)
1 59069U 24040A   26167.76276329  .00000153  00000+0  00000+0 0  9990
2 59069   0.0668 331.9978 0002734  65.6074 175.5765  1.00269231  7327
EUTELSAT 36D            
1 59346U 24059A   26167.92435374  .00000153  00000+0  00000+0 0  9993
2 59346   0.0180  42.6450 0000656 138.6836  92.5035  1.00269216  8145
PAKSAT-MM1              
1 59915U 24104A   26167.92652083  .00000151  00000+0  00000+0 0  9992
2 59915   0.0393  88.7084 0002407 345.7977 202.4397  1.00264883  7529
ASTRA 1P (SES-24)       
1 60086U 24115A   26165.77259104  .00000126  00000+0  00000+0 0  9995
2 60086   0.0593 357.4016 0000904 356.3080 206.6982  1.00269642  7171
GOES 19                 
1 60133U 24119A   26167.59867400 -.00000250  00000+0  00000+0 0  9997
2 60133   0.0076  86.7798 0000387  98.2994 220.1202  1.00271370  6952
ZHONGXING-3A            
1 60179U 24122A   26168.11344639 -.00000317  00000+0  00000+0 0  9998
2 60179   0.0405 103.9872 0001041  22.1831 281.6065  1.00271628  7302
TURKSAT 6A              
1 60233U 24127A   26167.92652083  .00000000  00000+0  00000+0 0  9995
2 60233   0.0150 219.7978 0001462 273.1741 147.7575  1.00269722  7016
HULIANWAN GAOGUI-02 (H*)
1 60327U 24135A   26168.51850487 -.00000179  00000+0  00000+0 0  9990
2 60327   0.0433   1.4733 0007389   5.1944 238.8993  1.00267760  7501
ZHONGXING-4A            
1 60606U 24151A   26167.85087132 -.00000364  00000+0  00000+0 0  9999
2 60606   1.3147 270.8440 0000076  72.5719 346.2235  1.00273699  6755
HULIANWAN GAOGUI-03 (H*)
1 61503U 24181A   26168.40600354 -.00000246  00000+0  00000+0 0  9997
2 61503   0.0466   2.9842 0001152  86.9142 244.7856  1.00271733  6823
DSN-3 (KIRAMEKI-3)      
1 61733U 24198A   26167.78472133 -.00000253  00000+0  00000+0 0  9990
2 61733   0.0174   6.2916 0000368  86.2713 239.0431  1.00271743  5914
KOREASAT 6A             
1 61910U 24206A   26167.77908796 -.00000364  00000+0  00000+0 0  9998
2 61910   0.0178  45.7007 0000729  11.5226 244.3062  1.00270733  5833
OPTUS-X (ADS-01)        
1 62006U 24212A   26168.22058715 -.00000148  00000+0  00000+0 0  9990
2 62006   0.0217 292.5762 0001820 201.2045   7.4871  1.00270105  5765
GSAT-N2 (GSAT-20)       
1 62028U 24214A   26167.94447088 -.00000022  00000+0  00000+0 0  9990
2 62028   0.0422 114.2830 0001804 320.8930 237.9964  1.00269758  5895
SXM-9                   
1 62259U 24234A   26168.23273959 -.00000209  00000+0  00000+0 0  9992
2 62259   0.0129 343.0057 0004985 330.6963 310.4099  1.00269932  5571
TJS-12                  
1 62374U 24246A   26168.51850487 -.00000236  00000+0  00000+0 0  9991
2 62374   0.6691 299.2191 0002047  81.2525 218.5015  1.00269455  5565
NUVIEW ALPHA            
1 62455U 24252B   26168.40600354 -.00000220  00000+0  00000+0 0  9995
2 62455   0.0574  36.3107 0000963  20.5015 271.9335  1.00271084  3827
